*******************************************************************************
JPL/HORIZONS                 139 Juewa (A874 TA)           2023-Sep-04 11:04:36
Rec #:     139 (+COV) Soln.date: 2023-Aug-22_00:55:49   # obs: 8023 (1881-2023)
 
IAU76/J2000 helio. ecliptic osc. elements (au, days, deg., period=Julian yrs):
 
  EPOCH=  2457463.5 ! 2016-Mar-16.00 (TDB)         Residual RMS= .2778
   EC= .1756576569239917   QR= 2.292672865031293   TP= 2457317.0051485207
   OM= 1.834663847302685   W=  165.5963410530077   IN= 10.91274892416746
   A= 2.781214484841642    MA= 31.12968397843634   ADIST= 3.269756104651992
   PER= 4.63831            N= .212496778           ANGMOM= .028241836
   DAN= 3.248              DDN= 2.30349            L= 167.6809139
   B= 2.6991809            MOID= 1.30076003        TP= 2015-Oct-21.5051485207
 
Asteroid physical parameters (km, seconds, rotational period in hours):
   GM= n.a.                RAD= 75.558             ROTPER= 20.991
   H= 8.09                 G= .150                 B-V= .693
                           ALBEDO= .052            STYP= X

ASTEROID comments: 
1: soln ref.= JPL#125, OCC=0
2: source=ORB
*******************************************************************************


*******************************************************************************
Ephemeris / API_USER Mon Sep  4 11:04:36 2023 Pasadena, USA      / Horizons
*******************************************************************************
Target body name: 139 Juewa (A874 TA)             {source: JPL#125}
Center body name: Solar System Barycenter (0)     {source: DE441}
Center-site name: BODY CENTER
*******************************************************************************
Start time      : A.D. 2023-Aug-12 00:00:00.0000 TDB
Stop  time      : A.D. 2023-Aug-13 00:00:00.0000 TDB
Step-size       : 2880 minutes
*******************************************************************************
Center geodetic : 0.0, 0.0, 0.0                   {E-lon(deg),Lat(deg),Alt(km)}
Center cylindric: 0.0, 0.0, 0.0                   {E-lon(deg),Dxy(km),Dz(km)}
Center radii    : (undefined)
Small perturbers: Yes                             {source: SB441-N16}
Output units    : KM-S
Calendar mode   : Mixed Julian/Gregorian
Output type     : GEOMETRIC cartesian states
Output format   : 2 (position and velocity)
Reference frame : Ecliptic of J2000.0
*******************************************************************************
Initial IAU76/J2000 heliocentric ecliptic osculating elements (au, days, deg.):
  EPOCH=  2457463.5 ! 2016-Mar-16.00 (TDB)         Residual RMS= .2778         
   EC= .1756576569239917   QR= 2.292672865031293   TP= 2457317.0051485207      
   OM= 1.834663847302685   W=  165.5963410530077   IN= 10.91274892416746       
  Equivalent ICRF heliocentric cartesian coordinates (au, au/d):
   X=-2.045963947124797E+00  Y=-1.030366170544989E+00  Z=-6.890767127509064E-01
  VX= 5.027359144719907E-03 VY=-8.864837128675735E-03 VZ=-6.094654469851158E-03
Asteroid physical parameters (km, seconds, rotational period in hours):        
   GM= n.a.                RAD= 75.558             ROTPER= 20.991              
   H= 8.09                 G= .150                 B-V= .693                   
                           ALBEDO= .052            STYP= X                     
*******************************************************************************
JDTDB
   X     Y     Z
   VX    VY    VZ
*******************************************************************************
$$SOE
2460168.500000000 = A.D. 2023-Aug-12 00:00:00.0000 TDB 
 X = 3.650827124662640E+08 Y = 2.682824334634725E+08 Z = 4.947271664880778E+07
 VX=-1.143270898290105E+01 VY= 1.125574653973847E+01 VZ= 2.233207977833524E+00
$$EOE
*******************************************************************************
 
TIME

  Barycentric Dynamical Time ("TDB" or T_eph) output was requested. This
continuous coordinate time is equivalent to the relativistic proper time
of a clock at rest in a reference frame co-moving with the solar system
barycenter but outside the system's gravity well. It is the independent
variable in the solar system relativistic equations of motion.

  TDB runs at a uniform rate of one SI second per second and is independent
of irregularities in Earth's rotation.
 
CALENDAR SYSTEM

  Mixed calendar mode was active such that calendar dates after AD 1582-Oct-15
(if any) are in the modern Gregorian system. Dates prior to 1582-Oct-5 (if any)
are in the Julian calendar system, which is automatically extended for dates
prior to its adoption on 45-Jan-1 BC.  The Julian calendar is useful for
matching historical dates. The Gregorian calendar more accurately corresponds
to the Earth's orbital motion and seasons. A "Gregorian-only" calendar mode is
available if such physical events are the primary interest.

REFERENCE FRAME AND COORDINATES

  Ecliptic at the standard reference epoch

    Reference epoch: J2000.0
    X-Y plane: adopted Earth orbital plane at the reference epoch
               Note: IAU76 obliquity of 84381.448 arcseconds wrt ICRF X-Y plane
    X-axis   : ICRF
    Z-axis   : perpendicular to the X-Y plane in the directional (+ or -) sense
               of Earth's north pole at the reference epoch.

  Symbol meaning:

    JDTDB    Julian Day Number, Barycentric Dynamical Time
      X      X-component of position vector (km)
      Y      Y-component of position vector (km)
      Z      Z-component of position vector (km)
      VX     X-component of velocity vector (km/sec)                           
      VY     Y-component of velocity vector (km/sec)                           
      VZ     Z-component of velocity vector (km/sec)                           

ABERRATIONS AND CORRECTIONS

 Geometric state vectors have NO corrections or aberrations applied.

Computations by ...

    Solar System Dynamics Group, Horizons On-Line Ephemeris System
    4800 Oak Grove Drive, Jet Propulsion Laboratory
    Pasadena, CA  91109   USA

    General site: https://ssd.jpl.nasa.gov/
    Mailing list: https://ssd.jpl.nasa.gov/email_list.html
    System news : https://ssd.jpl.nasa.gov/horizons/news.html
    User Guide  : https://ssd.jpl.nasa.gov/horizons/manual.html
    Connect     : browser        https://ssd.jpl.nasa.gov/horizons/app.html#/x
                  API            https://ssd-api.jpl.nasa.gov/doc/horizons.html
                  command-line   telnet ssd.jpl.nasa.gov 6775
                  e-mail/batch   https://ssd.jpl.nasa.gov/ftp/ssd/hrzn_batch.txt
                  scripts        https://ssd.jpl.nasa.gov/ftp/ssd/SCRIPTS
    Author      : Jon.D.Giorgini@jpl.nasa.gov
*******************************************************************************
